[{"OBJECT_NAME":"STARLINK-4627","OBJECT_ID":"2022-107M","EPOCH":"2026-03-09T19:14:58.575840","MEAN_MOTION":15.08844904,"ECCENTRICITY":0.00013873,"INCLINATION":53.2176,"RA_OF_ASC_NODE":248.4218,"ARG_OF_PERICENTER":97.9285,"MEAN_ANOMALY":262.1865,"EPHEMERIS_TYPE":0,"CLASSIFICATION_TYPE":"U","NORAD_CAT_ID":53711,"ELEMENT_SET_NO":999,"REV_AT_EPOCH":19449,"BSTAR":-2.6948948e-5,"MEAN_MOTION_DOT":-7.17e-6,"MEAN_MOTION_DDOT":0},{"OBJECT_NAME":"FENGYUN 1C DEB","OBJECT_ID":"1999-025DFV","EPOCH":"2026-03-08T16:36:39.334752","MEAN_MOTION":14.7561826,"ECCENTRICITY":0.02801674,"INCLINATION":99.0493,"RA_OF_ASC_NODE":138.4817,"ARG_OF_PERICENTER":72.5853,"MEAN_ANOMALY":290.5777,"EPHEMERIS_TYPE":0,"CLASSIFICATION_TYPE":"U","NORAD_CAT_ID":33684,"ELEMENT_SET_NO":999,"REV_AT_EPOCH":94255,"BSTAR":0.0012457497,"MEAN_MOTION_DOT":0.00016208,"MEAN_MOTION_DDOT":0}]
